[{"OBJECT_NAME":"STARLINK-2604","OBJECT_ID":"2021-038X","EPOCH":"2026-03-09T00:56:44.940192","MEAN_MOTION":15.30183966,"ECCENTRICITY":0.00011049,"INCLINATION":53.1609,"RA_OF_ASC_NODE":350.8195,"ARG_OF_PERICENTER":77.5894,"MEAN_ANOMALY":282.5231,"EPHEMERIS_TYPE":0,"CLASSIFICATION_TYPE":"U","NORAD_CAT_ID":48374,"ELEMENT_SET_NO":999,"REV_AT_EPOCH":26712,"BSTAR":-0.00043405518,"MEAN_MOTION_DOT":-0.00013185,"MEAN_MOTION_DDOT":0},{"OBJECT_NAME":"CZ-4B R\/B","OBJECT_ID":"2024-208C","EPOCH":"2026-03-09T16:49:23.143584","MEAN_MOTION":15.26980605,"ECCENTRICITY":0.01307988,"INCLINATION":97.9574,"RA_OF_ASC_NODE":113.1946,"ARG_OF_PERICENTER":150.913,"MEAN_ANOMALY":209.9477,"EPHEMERIS_TYPE":0,"CLASSIFICATION_TYPE":"U","NORAD_CAT_ID":61938,"ELEMENT_SET_NO":999,"REV_AT_EPOCH":7308,"BSTAR":0.00035146236,"MEAN_MOTION_DOT":0.000119,"MEAN_MOTION_DDOT":0}]
